1 25544U 98067A   24323.58934968  .00017127  00000-0  30793-3 0  9999
2 25544  51.6416 270.4297 0007224 233.0708 297.5388 15.49933395482494
1 25544U 98067A   24323.23641665  .00015918  00000-0  28694-3 0  9993
2 25544  51.6394 272.1811 0007335 231.4765 128.5566 15.49919217482441
1 25544U 98067A   24323.19710131  .00016780  00000-0  30201-3 0  9998
2 25544  51.6417 272.3720 0007265 231.5335 268.9876 15.49919046482436
1 25544U 98067A   24322.09401066  .00019103  00000-0  34302-3 0  9998
2 25544  51.6410 277.8367 0007583 226.0535 235.5529 15.49882713482266
1 25544U 98067A   24321.89915358  .00019550  00000-0  35091-3 0  9991
2 25544  51.6411 278.8023 0007591 225.5134 228.1614 15.49876766482236
1 25544U 98067A   24321.69937896  .00018805  00000-0  33800-3 0  9998
2 25544  51.6410 279.7922 0007606 224.0869 194.1944 15.49866249482209
1 25544U 98067A   24321.38465264  .00018621  00000-0  33492-3 0  9992
2 25544  51.6413 281.3529 0007607 223.0065 238.0981 15.49853668482156
1 25544U 98067A   24321.20587963  .00018228  00000-0  32812-3 0  9992
2 25544  51.6409 282.2382 0007650 221.8173 321.1701 15.49845766482123
1 25544U 98067A   24321.00014378  .00018737  00000-0  33712-3 0  9990
2 25544  51.6413 283.2589 0007688 220.6817 253.6602 15.49839349482096
1 25544U 98067A   24320.41934031  .00017230  00000-0  31097-3 0  9992
2 25544  51.6416 286.1371 0007839 218.0643 253.6102 15.49814552482001
1 25544U 98067A   24320.36274227  .00015569  00000-0  28188-3 0  9990
2 25544  51.6413 286.4173 0007936 217.3657 298.3197 15.49809951481990
1 25544U 98067A   24320.20859765  .00013446  00000-0  24466-3 0  9996
2 25544  51.6413 287.1805 0008170 216.2181 158.8793 15.49802113481974
