[
    {
        "OBJECT_NAME": "ISS (ZARYA)",
        "OBJECT_ID": "1998-067A",
        "EPOCH": "2024-11-15T05:00:22.836960",
        "MEAN_MOTION": 15.49802113,
        "ECCENTRICITY": 0.000817,
        "INCLINATION": 51.6413,
        "RA_OF_ASC_NODE": 287.1805,
        "ARG_OF_PERICENTER": 216.2181,
        "MEAN_ANOMALY": 158.8793,
        "EPHEMERIS_TYPE": 0,
        "CLASSIFICATION_TYPE": "U",
        "NORAD_CAT_ID": 25544,
        "ELEMENT_SET_NO": 999,
        "REV_AT_EPOCH": 48197,
        "BSTAR": 0.00024466,
        "MEAN_MOTION_DOT": 0.00013446,
        "MEAN_MOTION_DDOT": 0,
        "date_fetched": "2024-11-15T07:14:57.296887Z"
    },
    {
        "OBJECT_NAME": "ISS (ZARYA)",
        "OBJECT_ID": "1998-067A",
        "EPOCH": "2024-11-15T08:42:20.932128",
        "MEAN_MOTION": 15.49809951,
        "ECCENTRICITY": 0.0007936,
        "INCLINATION": 51.6413,
        "RA_OF_ASC_NODE": 286.4173,
        "ARG_OF_PERICENTER": 217.3657,
        "MEAN_ANOMALY": 298.3197,
        "EPHEMERIS_TYPE": 0,
        "CLASSIFICATION_TYPE": "U",
        "NORAD_CAT_ID": 25544,
        "ELEMENT_SET_NO": 999,
        "REV_AT_EPOCH": 48199,
        "BSTAR": 0.00028188,
        "MEAN_MOTION_DOT": 0.00015569,
        "MEAN_MOTION_DDOT": 0,
        "date_fetched": "2024-11-15T13:23:23.649340Z"
    },
    {
        "OBJECT_NAME": "ISS (ZARYA)",
        "OBJECT_ID": "1998-067A",
        "EPOCH": "2024-11-15T10:03:51.002784",
        "MEAN_MOTION": 15.49814552,
        "ECCENTRICITY": 0.0007839,
        "INCLINATION": 51.6416,
        "RA_OF_ASC_NODE": 286.1371,
        "ARG_OF_PERICENTER": 218.0643,
        "MEAN_ANOMALY": 253.6102,
        "EPHEMERIS_TYPE": 0,
        "CLASSIFICATION_TYPE": "U",
        "NORAD_CAT_ID": 25544,
        "ELEMENT_SET_NO": 999,
        "REV_AT_EPOCH": 48200,
        "BSTAR": 0.00031097,
        "MEAN_MOTION_DOT": 0.0001723,
        "MEAN_MOTION_DDOT": 0,
        "date_fetched": "2024-11-15T19:12:34.054461Z"
    },
    {
        "OBJECT_NAME": "ISS (ZARYA)",
        "OBJECT_ID": "1998-067A",
        "EPOCH": "2024-11-16T00:00:12.422592",
        "MEAN_MOTION": 15.49839349,
        "ECCENTRICITY": 0.0007688,
        "INCLINATION": 51.6413,
        "RA_OF_ASC_NODE": 283.2589,
        "ARG_OF_PERICENTER": 220.6817,
        "MEAN_ANOMALY": 253.6602,
        "EPHEMERIS_TYPE": 0,
        "CLASSIFICATION_TYPE": "U",
        "NORAD_CAT_ID": 25544,
        "ELEMENT_SET_NO": 999,
        "REV_AT_EPOCH": 48209,
        "BSTAR": 0.00033712,
        "MEAN_MOTION_DOT": 0.00018737,
        "MEAN_MOTION_DDOT": 0,
        "date_fetched": "2024-11-16T02:18:56.927254Z"
    },
    {
        "OBJECT_NAME": "ISS (ZARYA)",
        "OBJECT_ID": "1998-067A",
        "EPOCH": "2024-11-16T04:56:28.000032",
        "MEAN_MOTION": 15.49845766,
        "ECCENTRICITY": 0.000765,
        "INCLINATION": 51.6409,
        "RA_OF_ASC_NODE": 282.2382,
        "ARG_OF_PERICENTER": 221.8173,
        "MEAN_ANOMALY": 321.1701,
        "EPHEMERIS_TYPE": 0,
        "CLASSIFICATION_TYPE": "U",
        "NORAD_CAT_ID": 25544,
        "ELEMENT_SET_NO": 999,
        "REV_AT_EPOCH": 48212,
        "BSTAR": 0.00032812,
        "MEAN_MOTION_DOT": 0.00018228,
        "MEAN_MOTION_DDOT": 0,
        "date_fetched": "2024-11-16T07:13:32.030316Z"
    },
    {
        "OBJECT_NAME": "ISS (ZARYA)",
        "OBJECT_ID": "1998-067A",
        "EPOCH": "2024-11-16T09:13:53.988096",
        "MEAN_MOTION": 15.49853668,
        "ECCENTRICITY": 0.0007607,
        "INCLINATION": 51.6413,
        "RA_OF_ASC_NODE": 281.3529,
        "ARG_OF_PERICENTER": 223.0065,
        "MEAN_ANOMALY": 238.0981,
        "EPHEMERIS_TYPE": 0,
        "CLASSIFICATION_TYPE": "U",
        "NORAD_CAT_ID": 25544,
        "ELEMENT_SET_NO": 999,
        "REV_AT_EPOCH": 48215,
        "BSTAR": 0.00033492,
        "MEAN_MOTION_DOT": 0.00018621,
        "MEAN_MOTION_DDOT": 0,
        "date_fetched": "2024-11-16T13:20:11.487271Z"
    },
    {
        "OBJECT_NAME": "ISS (ZARYA)",
        "OBJECT_ID": "1998-067A",
        "EPOCH": "2024-11-16T16:47:06.342144",
        "MEAN_MOTION": 15.49866249,
        "ECCENTRICITY": 0.0007606,
        "INCLINATION": 51.641,
        "RA_OF_ASC_NODE": 279.7922,
        "ARG_OF_PERICENTER": 224.0869,
        "MEAN_ANOMALY": 194.1944,
        "EPHEMERIS_TYPE": 0,
        "CLASSIFICATION_TYPE": "U",
        "NORAD_CAT_ID": 25544,
        "ELEMENT_SET_NO": 999,
        "REV_AT_EPOCH": 48220,
        "BSTAR": 0.000338,
        "MEAN_MOTION_DOT": 0.00018805,
        "MEAN_MOTION_DDOT": 0,
        "date_fetched": "2024-11-16T19:12:30.031918Z"
    },
    {
        "OBJECT_NAME": "ISS (ZARYA)",
        "OBJECT_ID": "1998-067A",
        "EPOCH": "2024-11-16T21:34:46.869312",
        "MEAN_MOTION": 15.49876766,
        "ECCENTRICITY": 0.0007591,
        "INCLINATION": 51.6411,
        "RA_OF_ASC_NODE": 278.8023,
        "ARG_OF_PERICENTER": 225.5134,
        "MEAN_ANOMALY": 228.1614,
        "EPHEMERIS_TYPE": 0,
        "CLASSIFICATION_TYPE": "U",
        "NORAD_CAT_ID": 25544,
        "ELEMENT_SET_NO": 999,
        "REV_AT_EPOCH": 48223,
        "BSTAR": 0.00035091,
        "MEAN_MOTION_DOT": 0.0001955,
        "MEAN_MOTION_DDOT": 0,
        "date_fetched": "2024-11-17T02:24:49.827434Z"
    },
    {
        "OBJECT_NAME": "ISS (ZARYA)",
        "OBJECT_ID": "1998-067A",
        "EPOCH": "2024-11-17T02:15:22.521024",
        "MEAN_MOTION": 15.49882713,
        "ECCENTRICITY": 0.0007583,
        "INCLINATION": 51.641,
        "RA_OF_ASC_NODE": 277.8367,
        "ARG_OF_PERICENTER": 226.0535,
        "MEAN_ANOMALY": 235.5529,
        "EPHEMERIS_TYPE": 0,
        "CLASSIFICATION_TYPE": "U",
        "NORAD_CAT_ID": 25544,
        "ELEMENT_SET_NO": 999,
        "REV_AT_EPOCH": 48226,
        "BSTAR": 0.00034302,
        "MEAN_MOTION_DOT": 0.00019103,
        "MEAN_MOTION_DDOT": 0,
        "date_fetched": "2024-11-17T07:14:46.946867Z"
    },
    {
        "OBJECT_NAME": "ISS (ZARYA)",
        "OBJECT_ID": "1998-067A",
        "EPOCH": "2024-11-18T04:43:49.553184",
        "MEAN_MOTION": 15.49919046,
        "ECCENTRICITY": 0.0007265,
        "INCLINATION": 51.6417,
        "RA_OF_ASC_NODE": 272.372,
        "ARG_OF_PERICENTER": 231.5335,
        "MEAN_ANOMALY": 268.9876,
        "EPHEMERIS_TYPE": 0,
        "CLASSIFICATION_TYPE": "U",
        "NORAD_CAT_ID": 25544,
        "ELEMENT_SET_NO": 999,
        "REV_AT_EPOCH": 48243,
        "BSTAR": 0.00030201,
        "MEAN_MOTION_DOT": 0.0001678,
        "MEAN_MOTION_DDOT": 0,
        "date_fetched": "2024-11-18T07:16:08.461481Z"
    },
    {
        "OBJECT_NAME": "ISS (ZARYA)",
        "OBJECT_ID": "1998-067A",
        "EPOCH": "2024-11-18T05:40:26.398560",
        "MEAN_MOTION": 15.49919217,
        "ECCENTRICITY": 0.0007335,
        "INCLINATION": 51.6394,
        "RA_OF_ASC_NODE": 272.1811,
        "ARG_OF_PERICENTER": 231.4765,
        "MEAN_ANOMALY": 128.5566,
        "EPHEMERIS_TYPE": 0,
        "CLASSIFICATION_TYPE": "U",
        "NORAD_CAT_ID": 25544,
        "ELEMENT_SET_NO": 999,
        "REV_AT_EPOCH": 48244,
        "BSTAR": 0.00028694,
        "MEAN_MOTION_DOT": 0.00015918,
        "MEAN_MOTION_DDOT": 0,
        "date_fetched": "2024-11-18T13:25:25.732521Z"
    },
    {
        "OBJECT_NAME": "ISS (ZARYA)",
        "OBJECT_ID": "1998-067A",
        "EPOCH": "2024-11-18T14:08:39.812352",
        "MEAN_MOTION": 15.49933395,
        "ECCENTRICITY": 0.0007224,
        "INCLINATION": 51.6416,
        "RA_OF_ASC_NODE": 270.4297,
        "ARG_OF_PERICENTER": 233.0708,
        "MEAN_ANOMALY": 297.5388,
        "EPHEMERIS_TYPE": 0,
        "CLASSIFICATION_TYPE": "U",
        "NORAD_CAT_ID": 25544,
        "ELEMENT_SET_NO": 999,
        "REV_AT_EPOCH": 48249,
        "BSTAR": 0.00030793,
        "MEAN_MOTION_DOT": 0.00017127,
        "MEAN_MOTION_DDOT": 0,
        "date_fetched": "2024-11-18T19:12:38.006905Z"
    }
]